[{"OBJECT_NAME":"STARLINK-34480","OBJECT_ID":"2025-129R","EPOCH":"2026-03-09T23:34:57.825408","MEAN_MOTION":14.98332626,"ECCENTRICITY":0.00034043,"INCLINATION":70.001,"RA_OF_ASC_NODE":73.6158,"ARG_OF_PERICENTER":268.4976,"MEAN_ANOMALY":91.5793,"EPHEMERIS_TYPE":0,"CLASSIFICATION_TYPE":"U","NORAD_CAT_ID":64427,"ELEMENT_SET_NO":999,"REV_AT_EPOCH":4133,"BSTAR":0.00032514467,"MEAN_MOTION_DOT":3.789e-5,"MEAN_MOTION_DDOT":0},{"OBJECT_NAME":"FENGYUN 1C DEB","OBJECT_ID":"1999-025AKL","EPOCH":"2026-03-09T14:47:46.011264","MEAN_MOTION":14.88806868,"ECCENTRICITY":0.0088849,"INCLINATION":98.9015,"RA_OF_ASC_NODE":300.2677,"ARG_OF_PERICENTER":245.5096,"MEAN_ANOMALY":169.9787,"EPHEMERIS_TYPE":0,"CLASSIFICATION_TYPE":"U","NORAD_CAT_ID":30546,"ELEMENT_SET_NO":999,"REV_AT_EPOCH":1749,"BSTAR":0.00087367,"MEAN_MOTION_DOT":8.737e-5,"MEAN_MOTION_DDOT":0}]
